{
  "type": "FeatureCollection",
  "features": [
    {
      "type": "Feature",
      "id": "baegot",
      "properties": {
        "id": "baegot",
        "name": "배곧동",
        "center_lat": 37.3690909,
        "center_lng": 126.7208477,
        "source": "OpenStreetMap contributors",
        "source_url": "https://www.openstreetmap.org/relation/12926903"
      },
      "geometry": {
        "type": "Polygon",
        "coordinates": [
          [
            [
              126.6937043,
              37.3606695
            ],
            [
              126.6996115,
              37.3534015
            ],
            [
              126.7032196,
              37.3512114
            ],
            [
              126.7033443,
              37.3512929
            ],
            [
              126.7054192,
              37.3524652
            ],
            [
              126.7068002,
              37.353291
            ],
            [
              126.707989,
              37.3539643
            ],
            [
              126.70771,
              37.3541884
            ],
            [
              126.7077565,
              37.3545859
            ],
            [
              126.7081576,
              37.3546182
            ],
            [
              126.7083146,
              37.3548169
            ],
            [
              126.708309,
              37.3552351
            ],
            [
              126.7089104,
              37.3563013
            ],
            [
              126.7099393,
              37.357374
            ],
            [
              126.7101573,
              37.3575473
            ],
            [
              126.7106191,
              37.3576509
            ],
            [
              126.7108114,
              37.357857
            ],
            [
              126.7110526,
              37.3578962
            ],
            [
              126.7112031,
              37.3577821
            ],
            [
              126.7113909,
              37.3577955
            ],
            [
              126.7115148,
              37.3579563
            ],
            [
              126.7116834,
              37.3579355
            ],
            [
              126.7118791,
              37.3577945
            ],
            [
              126.7122262,
              37.3578195
            ],
            [
              126.7124508,
              37.3580395
            ],
            [
              126.7126049,
              37.3580048
            ],
            [
              126.7128433,
              37.3574572
            ],
            [
              126.7130119,
              37.3573117
            ],
            [
              126.7130293,
              37.3566924
            ],
            [
              126.7131049,
              37.3564013
            ],
            [
              126.7134579,
              37.3566657
            ],
            [
              126.71455,
              37.3572823
            ],
            [
              126.7161985,
              37.3582762
            ],
            [
              126.7174284,
              37.3589881
            ],
            [
              126.7193244,
              37.3601321
            ],
            [
              126.7194749,
              37.3602193
            ],
            [
              126.7196051,
              37.3600733
            ],
            [
              126.7212561,
              37.3610367
            ],
            [
              126.7214685,
              37.3611478
            ],
            [
              126.7226289,
              37.3617546
            ],
            [
              126.7250327,
              37.3630953
            ],
            [
              126.7264285,
              37.3639305
            ],
            [
              126.7281022,
              37.3649265
            ],
            [
              126.7315455,
              37.3668323
            ],
            [
              126.7336205,
              37.368037
            ],
            [
              126.7338722,
              37.3681831
            ],
            [
              126.7341835,
              37.3683639
            ],
            [
              126.7340139,
              37.3683438
            ],
            [
              126.733884,
              37.3683868
            ],
            [
              126.7362838,
              37.369795
            ],
            [
              126.7364606,
              37.3699069
            ],
            [
              126.7365905,
              37.370013
            ],
            [
              126.7367457,
              37.370274
            ],
            [
              126.737435,
              37.371229
            ],
            [
              126.738321,
              37.3725682
            ],
            [
              126.7388087,
              37.3732968
            ],
            [
              126.7389969,
              37.3736272
            ],
            [
              126.7391577,
              37.3742662
            ],
            [
              126.7392397,
              37.3748498
            ],
            [
              126.7394096,
              37.3768103
            ],
            [
              126.7394703,
              37.3773746
            ],
            [
              126.7395431,
              37.378139
            ],
            [
              126.7396645,
              37.3786093
            ],
            [
              126.7398587,
              37.3790991
            ],
            [
              126.740281,
              37.3799104
            ],
            [
              126.7404942,
              37.380265
            ],
            [
              126.7406726,
              37.3805574
            ],
            [
              126.741051,
              37.381007
            ],
            [
              126.7410571,
              37.381091
            ],
            [
              126.7413496,
              37.3814228
            ],
            [
              126.7416435,
              37.3815506
            ],
            [
              126.7416843,
              37.3819377
            ],
            [
              126.7421314,
              37.3825466
            ],
            [
              126.7423334,
              37.3828866
            ],
            [
              126.7406232,
              37.3834942
            ],
            [
              126.7303754,
              37.3880129
            ],
            [
              126.7248623,
              37.3826569
            ],
            [
              126.722371,
              37.3799822
            ],
            [
              126.713643,
              37.3736787
            ],
            [
              126.6937043,
              37.3606695
            ]
          ]
        ]
      }
    },
    {
      "type": "Feature",
      "id": "jeongwang1",
      "properties": {
        "id": "jeongwang1",
        "name": "정왕1동",
        "center_lat": 37.3328622,
        "center_lng": 126.7361104,
        "source": "OpenStreetMap contributors",
        "source_url": "https://www.openstreetmap.org/relation/13374813"
      },
      "geometry": {
        "type": "Polygon",
        "coordinates": [
          [
            [
              126.7122432,
              37.3221152
            ],
            [
              126.7123081,
              37.3220758
            ],
            [
              126.717967,
              37.3185655
            ],
            [
              126.7202096,
              37.3171734
            ],
            [
              126.7236579,
              37.3150367
            ],
            [
              126.7240864,
              37.3147659
            ],
            [
              126.7242604,
              37.3149454
            ],
            [
              126.7247234,
              37.315423
            ],
            [
              126.7254972,
              37.316221
            ],
            [
              126.7279426,
              37.318743
            ],
            [
              126.7294298,
              37.3202767
            ],
            [
              126.7315761,
              37.3224902
            ],
            [
              126.7363267,
              37.3273791
            ],
            [
              126.7382247,
              37.3293558
            ],
            [
              126.7384973,
              37.3296187
            ],
            [
              126.7385594,
              37.3296842
            ],
            [
              126.7388354,
              37.3295073
            ],
            [
              126.7433796,
              37.3267102
            ],
            [
              126.7465673,
              37.3247476
            ],
            [
              126.7467318,
              37.3247279
            ],
            [
              126.7476085,
              37.3248157
            ],
            [
              126.7476085,
              37.32617
            ],
            [
              126.7485955,
              37.3293585
            ],
            [
              126.7490273,
              37.3311244
            ],
            [
              126.7497059,
              37.3333808
            ],
            [
              126.7506313,
              37.3341656
            ],
            [
              126.7545177,
              37.3362747
            ],
            [
              126.7577255,
              37.3382366
            ],
            [
              126.7580774,
              37.3385074
            ],
            [
              126.7561559,
              37.3397174
            ],
            [
              126.7560521,
              37.3397819
            ],
            [
              126.753026,
              37.3416404
            ],
            [
              126.7515503,
              37.3425606
            ],
            [
              126.7508443,
              37.3429933
            ],
            [
              126.7507817,
              37.343032
            ],
            [
              126.7479184,
              37.3448208
            ],
            [
              126.7451119,
              37.3465595
            ],
            [
              126.7422754,
              37.348296
            ],
            [
              126.739408,
              37.3500434
            ],
            [
              126.7393526,
              37.3500769
            ],
            [
              126.7393001,
              37.3500232
            ],
            [
              126.7379392,
              37.3486166
            ],
            [
              126.7363876,
              37.3470085
            ],
            [
              126.7362738,
              37.3468864
            ],
            [
              126.7347301,
              37.3452868
            ],
            [
              126.7333237,
              37.3438393
            ],
            [
              126.7332312,
              37.3437482
            ],
            [
              126.7304092,
              37.3408232
            ],
            [
              126.7286276,
              37.3390118
            ],
            [
              126.7267126,
              37.3370551
            ],
            [
              126.7266382,
              37.3369743
            ],
            [
              126.7250147,
              37.3352949
            ],
            [
              126.7232147,
              37.3334231
            ],
            [
              126.722168,
              37.3323436
            ],
            [
              126.7213421,
              37.3314977
            ],
            [
              126.7204159,
              37.3305364
            ],
            [
              126.7194654,
              37.3295638
            ],
            [
              126.7186489,
              37.3287252
            ],
            [
              126.7178835,
              37.3279305
            ],
            [
              126.7170828,
              37.3271105
            ],
            [
              126.7161535,
              37.326142
            ],
            [
              126.7160436,
              37.3260299
            ],
            [
              126.7122682,
              37.3221395
            ],
            [
              126.7122432,
              37.3221152
            ]
          ]
        ]
      }
    },
    {
      "type": "Feature",
      "id": "jeongwang2",
      "properties": {
        "id": "jeongwang2",
        "name": "정왕2동",
        "center_lat": 37.3318474,
        "center_lng": 126.6598047,
        "source": "OpenStreetMap contributors",
        "source_url": "https://www.openstreetmap.org/relation/13375012"
      },
      "geometry": {
        "type": "Polygon",
        "coordinates": [
          [
            [
              126.6228963,
              37.3324906
            ],
            [
              126.6286293,
              37.3179307
            ],
            [
              126.6289461,
              37.3171871
            ],
            [
              126.6328936,
              37.3087685
            ],
            [
              126.7117369,
              37.3025631
            ],
            [
              126.718151,
              37.3085055
            ],
            [
              126.7233647,
              37.3141016
            ],
            [
              126.7239189,
              37.3145932
            ],
            [
              126.7240864,
              37.3147659
            ],
            [
              126.7236579,
              37.3150367
            ],
            [
              126.7202096,
              37.3171734
            ],
            [
              126.717967,
              37.3185655
            ],
            [
              126.7123081,
              37.3220758
            ],
            [
              126.7122432,
              37.3221152
            ],
            [
              126.7122682,
              37.3221395
            ],
            [
              126.7160436,
              37.3260299
            ],
            [
              126.7161535,
              37.326142
            ],
            [
              126.7170828,
              37.3271105
            ],
            [
              126.7178835,
              37.3279305
            ],
            [
              126.7186489,
              37.3287252
            ],
            [
              126.7194654,
              37.3295638
            ],
            [
              126.7204159,
              37.3305364
            ],
            [
              126.7213421,
              37.3314977
            ],
            [
              126.722168,
              37.3323436
            ],
            [
              126.7232147,
              37.3334231
            ],
            [
              126.7250147,
              37.3352949
            ],
            [
              126.7266382,
              37.3369743
            ],
            [
              126.7267126,
              37.3370551
            ],
            [
              126.7286276,
              37.3390118
            ],
            [
              126.7304092,
              37.3408232
            ],
            [
              126.7332312,
              37.3437482
            ],
            [
              126.7333237,
              37.3438393
            ],
            [
              126.7347301,
              37.3452868
            ],
            [
              126.7362738,
              37.3468864
            ],
            [
              126.7363876,
              37.3470085
            ],
            [
              126.7379392,
              37.3486166
            ],
            [
              126.7393001,
              37.3500232
            ],
            [
              126.7393526,
              37.3500769
            ],
            [
              126.7394024,
              37.3501275
            ],
            [
              126.7407017,
              37.3514668
            ],
            [
              126.7407216,
              37.3514971
            ],
            [
              126.7406912,
              37.351509
            ],
            [
              126.7402093,
              37.3517019
            ],
            [
              126.7397129,
              37.351887
            ],
            [
              126.7393047,
              37.3520736
            ],
            [
              126.7390265,
              37.352238
            ],
            [
              126.7388427,
              37.3523454
            ],
            [
              126.7386658,
              37.3524687
            ],
            [
              126.7384263,
              37.3526497
            ],
            [
              126.7381774,
              37.352856
            ],
            [
              126.7379887,
              37.3530171
            ],
            [
              126.7377975,
              37.3531776
            ],
            [
              126.7376322,
              37.353303
            ],
            [
              126.7374576,
              37.3534511
            ],
            [
              126.7372845,
              37.3536096
            ],
            [
              126.7371016,
              37.3538436
            ],
            [
              126.7370506,
              37.3539089
            ],
            [
              126.7369023,
              37.3541661
            ],
            [
              126.7365658,
              37.3552037
            ],
            [
              126.7365454,
              37.3552667
            ],
            [
              126.7364377,
              37.3555363
            ],
            [
              126.7363773,
              37.3556769
            ],
            [
              126.7361581,
              37.3563652
            ],
            [
              126.7357494,
              37.357511
            ],
            [
              126.7355592,
              37.3580746
            ],
            [
              126.7354808,
              37.3583504
            ],
            [
              126.7354195,
              37.3586326
            ],
            [
              126.7353837,
              37.3589467
            ],
            [
              126.735356,
              37.3592871
            ],
            [
              126.7353748,
              37.3596296
            ],
            [
              126.7354025,
              37.3599792
            ],
            [
              126.7354812,
              37.3602713
            ],
            [
              126.7354603,
              37.3604428
            ],
            [
              126.7354204,
              37.3604513
            ],
            [
              126.7352942,
              37.3605139
            ],
            [
              126.7352739,
              37.3605268
            ],
            [
              126.7342223,
              37.3611872
            ],
            [
              126.7341939,
              37.3611605
            ],
            [
              126.7322567,
              37.359171
            ],
            [
              126.7321368,
              37.3590417
            ],
            [
              126.7294335,
              37.3562617
            ],
            [
              126.7293969,
              37.3562234
            ],
            [
              126.7293551,
              37.3561796
            ],
            [
              126.7279664,
              37.3547574
            ],
            [
              126.726424,
              37.3531642
            ],
            [
              126.7263008,
              37.3530373
            ],
            [
              126.7247658,
              37.3514633
            ],
            [
              126.7233603,
              37.3500102
            ],
            [
              126.7232771,
              37.349921
            ],
            [
              126.7204406,
              37.3469847
            ],
            [
              126.716785,
              37.3431896
            ],
            [
              126.7167097,
              37.3431028
            ],
            [
              126.7132823,
              37.3395474
            ],
            [
              126.7114538,
              37.337635
            ],
            [
              126.7095619,
              37.3356718
            ],
            [
              126.7079853,
              37.334031
            ],
            [
              126.7063869,
              37.3323767
            ],
            [
              126.706255,
              37.3322368
            ],
            [
              126.706168,
              37.3321449
            ],
            [
              126.706039,
              37.332004
            ],
            [
              126.7052881,
              37.3312199
            ],
            [
              126.7045144,
              37.3304324
            ],
            [
              126.7037666,
              37.3296309
            ],
            [
              126.703002,
              37.3288455
            ],
            [
              126.7024017,
              37.3282225
            ],
            [
              126.7023802,
              37.3281981
            ],
            [
              126.7023091,
              37.328244
            ],
            [
              126.7018652,
              37.3285179
            ],
            [
              126.7014377,
              37.3287825
            ],
            [
              126.6967134,
              37.3316907
            ],
            [
              126.6928658,
              37.3340683
            ],
            [
              126.692478,
              37.334311
            ],
            [
              126.69234,
              37.3342204
            ],
            [
              126.6921608,
              37.3341762
            ],
            [
              126.6918456,
              37.3341556
            ],
            [
              126.691675,
              37.3341411
            ],
            [
              126.6916564,
              37.3342999
            ],
            [
              126.691639,
              37.3343628
            ],
            [
              126.6916189,
              37.3344321
            ],
            [
              126.6915939,
              37.3344987
            ],
            [
              126.6916902,
              37.3345029
            ],
            [
              126.6918065,
              37.3345461
            ],
            [
              126.6918334,
              37.3345888
            ],
            [
              126.6918495,
              37.3346357
            ],
            [
              126.691874,
              37.3347111
            ],
            [
              126.6918521,
              37.334806
            ],
            [
              126.6917854,
              37.3349048
            ],
            [
              126.6917018,
              37.3350318
            ],
            [
              126.6914534,
              37.3350832
            ],
            [
              126.691072,
              37.3351952
            ],
            [
              126.6906934,
              37.3351817
            ],
            [
              126.6723625,
              37.3453975
            ],
            [
              126.6707922,
              37.3437719
            ],
            [
              126.6603326,
              37.3329428
            ],
            [
              126.6228963,
              37.3324906
            ]
          ]
        ]
      }
    },
    {
      "type": "Feature",
      "id": "daeya",
      "properties": {
        "id": "daeya",
        "name": "대야동",
        "center_lat": 37.4551254,
        "center_lng": 126.8013314,
        "source": "OpenStreetMap contributors",
        "source_url": "https://www.openstreetmap.org/relation/13375641"
      },
      "geometry": {
        "type": "Polygon",
        "coordinates": [
          [
            [
              126.7776417,
              37.4576898
            ],
            [
              126.7778477,
              37.4568398
            ],
            [
              126.7792725,
              37.4561568
            ],
            [
              126.7792692,
              37.4560378
            ],
            [
              126.7792296,
              37.4546237
            ],
            [
              126.7792001,
              37.4537261
            ],
            [
              126.7791794,
              37.4536202
            ],
            [
              126.7793154,
              37.4529544
            ],
            [
              126.7791113,
              37.4526414
            ],
            [
              126.7788219,
              37.4518676
            ],
            [
              126.7795815,
              37.4511606
            ],
            [
              126.7795484,
              37.4504788
            ],
            [
              126.7800675,
              37.4494673
            ],
            [
              126.7798706,
              37.4486078
            ],
            [
              126.7804493,
              37.4479506
            ],
            [
              126.7807119,
              37.4474064
            ],
            [
              126.7809281,
              37.447176
            ],
            [
              126.781317,
              37.4467767
            ],
            [
              126.7812288,
              37.4461552
            ],
            [
              126.7821205,
              37.4457446
            ],
            [
              126.7825114,
              37.4451918
            ],
            [
              126.782824,
              37.445353
            ],
            [
              126.7828313,
              37.4452997
            ],
            [
              126.7831117,
              37.4447264
            ],
            [
              126.7832918,
              37.4443679
            ],
            [
              126.7838388,
              37.4445537
            ],
            [
              126.7851533,
              37.4445594
            ],
            [
              126.7851429,
              37.4441484
            ],
            [
              126.7851328,
              37.4437507
            ],
            [
              126.7851296,
              37.4435077
            ],
            [
              126.7851056,
              37.4433203
            ],
            [
              126.7850654,
              37.4430629
            ],
            [
              126.7850229,
              37.4429398
            ],
            [
              126.7848649,
              37.4426526
            ],
            [
              126.7852626,
              37.4425144
            ],
            [
              126.7861753,
              37.4421629
            ],
            [
              126.7868551,
              37.4419044
            ],
            [
              126.7878465,
              37.4415273
            ],
            [
              126.7879747,
              37.4414785
            ],
            [
              126.7879454,
              37.4414317
            ],
            [
              126.7876698,
              37.4409645
            ],
            [
              126.7874135,
              37.4405366
            ],
            [
              126.7872414,
              37.4402493
            ],
            [
              126.7869773,
              37.4399049
            ],
            [
              126.7882994,
              37.4393226
            ],
            [
              126.7894513,
              37.4390284
            ],
            [
              126.7911517,
              37.4386038
            ],
            [
              126.7925937,
              37.4386057
            ],
            [
              126.7934994,
              37.4385905
            ],
            [
              126.793444,
              37.4390376
            ],
            [
              126.7930682,
              37.4390417
            ],
            [
              126.7930506,
              37.4391586
            ],
            [
              126.7929922,
              37.4395802
            ],
            [
              126.7929703,
              37.4397251
            ],
            [
              126.7929606,
              37.4397894
            ],
            [
              126.7929316,
              37.439982
            ],
            [
              126.7929015,
              37.4401814
            ],
            [
              126.7928784,
              37.4403342
            ],
            [
              126.7928723,
              37.4405475
            ],
            [
              126.7928843,
              37.4406937
            ],
            [
              126.7929359,
              37.4408815
            ],
            [
              126.7930274,
              37.4410575
            ],
            [
              126.7934641,
              37.4417819
            ],
            [
              126.7936864,
              37.4421601
            ],
            [
              126.7937343,
              37.4422417
            ],
            [
              126.7938522,
              37.4424422
            ],
            [
              126.7940625,
              37.4427618
            ],
            [
              126.7941711,
              37.4428576
            ],
            [
              126.7942603,
              37.4429304
            ],
            [
              126.7946833,
              37.4431441
            ],
            [
              126.7956744,
              37.4436378
            ],
            [
              126.7958623,
              37.4437314
            ],
            [
              126.7965566,
              37.4440772
            ],
            [
              126.7968721,
              37.4442429
            ],
            [
              126.796996,
              37.4443087
            ],
            [
              126.7971432,
              37.4443862
            ],
            [
              126.7975984,
              37.4446268
            ],
            [
              126.797955,
              37.4448328
            ],
            [
              126.7979665,
              37.4448394
            ],
            [
              126.7983298,
              37.4450393
            ],
            [
              126.7987821,
              37.4452725
            ],
            [
              126.7989395,
              37.4453493
            ],
            [
              126.7990765,
              37.4454199
            ],
            [
              126.7994156,
              37.4456155
            ],
            [
              126.8001149,
              37.446002
            ],
            [
              126.800386,
              37.4461463
            ],
            [
              126.8005565,
              37.4462311
            ],
            [
              126.8008803,
              37.4463922
            ],
            [
              126.8014515,
              37.4466584
            ],
            [
              126.8017986,
              37.4467909
            ],
            [
              126.8019669,
              37.4468509
            ],
            [
              126.8025505,
              37.4470316
            ],
            [
              126.8036482,
              37.4473466
            ],
            [
              126.805487,
              37.4478441
            ],
            [
              126.8061856,
              37.4479911
            ],
            [
              126.806779,
              37.4473639
            ],
            [
              126.8066762,
              37.4470203
            ],
            [
              126.8078725,
              37.4457575
            ],
            [
              126.8082866,
              37.4453645
            ],
            [
              126.808629,
              37.4452606
            ],
            [
              126.8086041,
              37.444833
            ],
            [
              126.8089777,
              37.4444598
            ],
            [
              126.8089933,
              37.4442151
            ],
            [
              126.8096876,
              37.4435872
            ],
            [
              126.8097779,
              37.4437182
            ],
            [
              126.8104036,
              37.4435501
            ],
            [
              126.8102328,
              37.4431313
            ],
            [
              126.8100709,
              37.4430522
            ],
            [
              126.8101737,
              37.4429212
            ],
            [
              126.809744,
              37.4418138
            ],
            [
              126.8093019,
              37.440474
            ],
            [
              126.8090342,
              37.439599
            ],
            [
              126.8088084,
              37.438891
            ],
            [
              126.8085593,
              37.4386933
            ],
            [
              126.80855,
              37.4382137
            ],
            [
              126.8092754,
              37.438278
            ],
            [
              126.8098202,
              37.4383076
            ],
            [
              126.8106577,
              37.4385474
            ],
            [
              126.8110873,
              37.4386092
            ],
            [
              126.8117094,
              37.4385429
            ],
            [
              126.8132114,
              37.43856
            ],
            [
              126.8138337,
              37.4389689
            ],
            [
              126.8144217,
              37.438938
            ],
            [
              126.8154491,
              37.4390196
            ],
            [
              126.8159317,
              37.4391382
            ],
            [
              126.8167474,
              37.4391728
            ],
            [
              126.8175516,
              37.4390424
            ],
            [
              126.8181702,
              37.4393928
            ],
            [
              126.8190683,
              37.4395822
            ],
            [
              126.8197346,
              37.4397015
            ],
            [
              126.8203938,
              37.4401267
            ],
            [
              126.8204351,
              37.4404999
            ],
            [
              126.8209104,
              37.4408702
            ],
            [
              126.8213209,
              37.4414659
            ],
            [
              126.8216748,
              37.4418593
            ],
            [
              126.8225526,
              37.4420392
            ],
            [
              126.8240249,
              37.4421965
            ],
            [
              126.8226946,
              37.4432793
            ],
            [
              126.8223663,
              37.4437464
            ],
            [
              126.8223725,
              37.4441496
            ],
            [
              126.8226698,
              37.4444594
            ],
            [
              126.8239112,
              37.4454944
            ],
            [
              126.8243728,
              37.4458409
            ],
            [
              126.8247382,
              37.446131
            ],
            [
              126.8247506,
              37.4466817
            ],
            [
              126.8258591,
              37.4469472
            ],
            [
              126.8258033,
              37.4474044
            ],
            [
              126.8255804,
              37.4480927
            ],
            [
              126.8251779,
              37.449076
            ],
            [
              126.8246267,
              37.4495086
            ],
            [
              126.8242985,
              37.4496365
            ],
            [
              126.8241375,
              37.4502756
            ],
            [
              126.8253042,
              37.451079
            ],
            [
              126.8247506,
              37.4515735
            ],
            [
              126.8246205,
              37.4515293
            ],
            [
              126.8236876,
              37.4519857
            ],
            [
              126.8236547,
              37.4528678
            ],
            [
              126.824248,
              37.4537573
            ],
            [
              126.8237102,
              37.4543413
            ],
            [
              126.8234377,
              37.4547936
            ],
            [
              126.8234005,
              37.4554572
            ],
            [
              126.8233448,
              37.455939
            ],
            [
              126.8234129,
              37.4565387
            ],
            [
              126.8234872,
              37.4570402
            ],
            [
              126.8235058,
              37.4576006
            ],
            [
              126.8233223,
              37.4582405
            ],
            [
              126.8229118,
              37.4583682
            ],
            [
              126.8209993,
              37.4584362
            ],
            [
              126.8205715,
              37.4587056
            ],
            [
              126.8203912,
              37.4590348
            ],
            [
              126.8199425,
              37.4593764
            ],
            [
              126.8190077,
              37.4591208
            ],
            [
              126.8186298,
              37.4591535
            ],
            [
              126.8178195,
              37.4590405
            ],
            [
              126.8170538,
              37.4594511
            ],
            [
              126.8169006,
              37.4597858
            ],
            [
              126.8165471,
              37.4598472
            ],
            [
              126.8163057,
              37.4603268
            ],
            [
              126.8159741,
              37.4604736
            ],
            [
              126.8155443,
              37.4609677
            ],
            [
              126.8146974,
              37.4604585
            ],
            [
              126.814515,
              37.4602839
            ],
            [
              126.8139908,
              37.4601408
            ],
            [
              126.8132816,
              37.4601248
            ],
            [
              126.8133436,
              37.4594629
            ],
            [
              126.8134824,
              37.4591509
            ],
            [
              126.8135237,
              37.4585893
            ],
            [
              126.8132059,
              37.4588397
            ],
            [
              126.8127961,
              37.4590628
            ],
            [
              126.8126625,
              37.4590783
            ],
            [
              126.8125365,
              37.4590221
            ],
            [
              126.8123156,
              37.4591038
            ],
            [
              126.8119516,
              37.4586718
            ],
            [
              126.8118625,
              37.4587905
            ],
            [
              126.8117981,
              37.4592478
            ],
            [
              126.8117354,
              37.4594082
            ],
            [
              126.8116219,
              37.4596988
            ],
            [
              126.8112856,
              37.4599262
            ],
            [
              126.8111008,
              37.4602583
            ],
            [
              126.810515,
              37.4607416
            ],
            [
              126.8101142,
              37.4609313
            ],
            [
              126.8098213,
              37.4612739
            ],
            [
              126.8094591,
              37.4613412
            ],
            [
              126.8090078,
              37.4615674
            ],
            [
              126.8090033,
              37.4620357
            ],
            [
              126.8089003,
              37.4620288
            ],
            [
              126.8088952,
              37.4621284
            ],
            [
              126.8088048,
              37.4621192
            ],
            [
              126.8087256,
              37.4621461
            ],
            [
              126.8085335,
              37.4621188
            ],
            [
              126.8084318,
              37.4620916
            ],
            [
              126.8083075,
              37.4620914
            ],
            [
              126.8081493,
              37.4620641
            ],
            [
              126.8079571,
              37.4620728
            ],
            [
              126.8078555,
              37.4620456
            ],
            [
              126.8078216,
              37.4620546
            ],
            [
              126.8077425,
              37.4620364
            ],
            [
              126.8075957,
              37.4619821
            ],
            [
              126.8074149,
              37.4619548
            ],
            [
              126.8072226,
              37.4619995
            ],
            [
              126.8071535,
              37.4620062
            ],
            [
              126.8070607,
              37.4619883
            ],
            [
              126.8069869,
              37.4620335
            ],
            [
              126.8069512,
              37.4620531
            ],
            [
              126.8069059,
              37.4620801
            ],
            [
              126.8067816,
              37.4620979
            ],
            [
              126.8065555,
              37.4621156
            ],
            [
              126.8064312,
              37.4620973
            ],
            [
              126.806081,
              37.4619976
            ],
            [
              126.8058097,
              37.4620152
            ],
            [
              126.805708,
              37.461997
            ],
            [
              126.8056954,
              37.4619796
            ],
            [
              126.8056292,
              37.4618888
            ],
            [
              126.805539,
              37.4617985
            ],
            [
              126.8054601,
              37.4617263
            ],
            [
              126.8054037,
              37.4616902
            ],
            [
              126.8052681,
              37.4616719
            ],
            [
              126.805008,
              37.4616895
            ],
            [
              126.8049515,
              37.4616984
            ],
            [
              126.8047254,
              37.4617071
            ],
            [
              126.8045447,
              37.4616437
            ],
            [
              126.8043527,
              37.4616163
            ],
            [
              126.8042285,
              37.4615621
            ],
            [
              126.8040591,
              37.4615077
            ],
            [
              126.803799,
              37.4615524
            ],
            [
              126.8034031,
              37.4616418
            ],
            [
              126.8031882,
              37.4616955
            ],
            [
              126.803109,
              37.4617314
            ],
            [
              126.8029391,
              37.4618843
            ],
            [
              126.8028483,
              37.4620103
            ],
            [
              126.8026444,
              37.4621991
            ],
            [
              126.8026443,
              37.4622352
            ],
            [
              126.8025422,
              37.4623611
            ],
            [
              126.8024627,
              37.4624872
            ],
            [
              126.8024285,
              37.4625952
            ],
            [
              126.8023605,
              37.4626672
            ],
            [
              126.8023718,
              37.4626942
            ],
            [
              126.8022247,
              37.462739
            ],
            [
              126.8018629,
              37.4627925
            ],
            [
              126.801399,
              37.4629449
            ],
            [
              126.8008679,
              37.4629079
            ],
            [
              126.8010011,
              37.4637911
            ],
            [
              126.8002092,
              37.4640691
            ],
            [
              126.8000734,
              37.4641229
            ],
            [
              126.7999776,
              37.4641526
            ],
            [
              126.7986068,
              37.4645286
            ],
            [
              126.7979979,
              37.4644184
            ],
            [
              126.7973505,
              37.4640575
            ],
            [
              126.7964641,
              37.4639902
            ],
            [
              126.7962901,
              37.4641732
            ],
            [
              126.7948533,
              37.4656848
            ],
            [
              126.7941596,
              37.4656909
            ],
            [
              126.792279,
              37.465281
            ],
            [
              126.7892884,
              37.4655502
            ],
            [
              126.787955,
              37.4667187
            ],
            [
              126.7878388,
              37.4691743
            ],
            [
              126.7871382,
              37.4694887
            ],
            [
              126.7862936,
              37.4695114
            ],
            [
              126.7857027,
              37.4698769
            ],
            [
              126.7857447,
              37.4698892
            ],
            [
              126.7851211,
              37.4700174
            ],
            [
              126.7843585,
              37.4711817
            ],
            [
              126.7842382,
              37.4715368
            ],
            [
              126.7843037,
              37.4723932
            ],
            [
              126.7842643,
              37.4723163
            ],
            [
              126.7832328,
              37.4722589
            ],
            [
              126.7832082,
              37.4722383
            ],
            [
              126.7829717,
              37.4720397
            ],
            [
              126.7824089,
              37.4719843
            ],
            [
              126.7804831,
              37.4714607
            ],
            [
              126.7801344,
              37.4715203
            ],
            [
              126.7796409,
              37.4714266
            ],
            [
              126.7787987,
              37.4716991
            ],
            [
              126.7781975,
              37.471795
            ],
            [
              126.7778492,
              37.4707795
            ],
            [
              126.777881,
              37.4699705
            ],
            [
              126.7793362,
              37.4686602
            ],
            [
              126.7795086,
              37.468505
            ],
            [
              126.779265,
              37.4677565
            ],
            [
              126.7798229,
              37.4671604
            ],
            [
              126.7798053,
              37.4668503
            ],
            [
              126.7797156,
              37.46527
            ],
            [
              126.7790794,
              37.4647412
            ],
            [
              126.778779,
              37.4638044
            ],
            [
              126.7787386,
              37.4637597
            ],
            [
              126.7786819,
              37.4636968
            ],
            [
              126.7781751,
              37.4630995
            ],
            [
              126.7779265,
              37.4626903
            ],
            [
              126.7782019,
              37.4622839
            ],
            [
              126.7786857,
              37.4614889
            ],
            [
              126.7787176,
              37.4613019
            ],
            [
              126.7789507,
              37.4599381
            ],
            [
              126.777749,
              37.4591205
            ],
            [
              126.7776434,
              37.4577124
            ],
            [
              126.7776417,
              37.4576898
            ]
          ]
        ]
      }
    },
    {
      "type": "Feature",
      "id": "sincheon",
      "properties": {
        "id": "sincheon",
        "name": "신천동",
        "center_lat": 37.4396138,
        "center_lng": 126.7788556,
        "source": "OpenStreetMap contributors",
        "source_url": "https://www.openstreetmap.org/relation/13375243"
      },
      "geometry": {
        "type": "Polygon",
        "coordinates": [
          [
            [
              126.7681635,
              37.4435431
            ],
            [
              126.7687196,
              37.4430458
            ],
            [
              126.7693516,
              37.4422578
            ],
            [
              126.7692657,
              37.4413719
            ],
            [
              126.7698022,
              37.4406904
            ],
            [
              126.7698076,
              37.440669
            ],
            [
              126.770281,
              37.4387853
            ],
            [
              126.7703538,
              37.4384958
            ],
            [
              126.7704749,
              37.4380139
            ],
            [
              126.7705198,
              37.4376421
            ],
            [
              126.7705232,
              37.4376143
            ],
            [
              126.7711207,
              37.4368076
            ],
            [
              126.7711875,
              37.4357998
            ],
            [
              126.7711905,
              37.4357538
            ],
            [
              126.7713761,
              37.4350493
            ],
            [
              126.7709244,
              37.434539
            ],
            [
              126.7708107,
              37.4337901
            ],
            [
              126.7702099,
              37.4328871
            ],
            [
              126.7700403,
              37.4330174
            ],
            [
              126.7696091,
              37.4326656
            ],
            [
              126.76952,
              37.4325431
            ],
            [
              126.7689472,
              37.4319502
            ],
            [
              126.769126,
              37.4317042
            ],
            [
              126.7716026,
              37.4315482
            ],
            [
              126.7710844,
              37.4312194
            ],
            [
              126.7708569,
              37.4310105
            ],
            [
              126.7711039,
              37.4309141
            ],
            [
              126.7712307,
              37.4307591
            ],
            [
              126.7711823,
              37.4306015
            ],
            [
              126.7712457,
              37.4305207
            ],
            [
              126.7713908,
              37.4304637
            ],
            [
              126.7714409,
              37.430367
            ],
            [
              126.7717225,
              37.4301783
            ],
            [
              126.772235,
              37.4303378
            ],
            [
              126.7730776,
              37.4299947
            ],
            [
              126.7737666,
              37.4303789
            ],
            [
              126.7752748,
              37.430579
            ],
            [
              126.7762275,
              37.4308214
            ],
            [
              126.7769549,
              37.4310188
            ],
            [
              126.7775405,
              37.4314679
            ],
            [
              126.7778292,
              37.4318945
            ],
            [
              126.7780666,
              37.4325603
            ],
            [
              126.7781441,
              37.4325459
            ],
            [
              126.7789199,
              37.4321965
            ],
            [
              126.7796308,
              37.4321726
            ],
            [
              126.7798736,
              37.4323232
            ],
            [
              126.7800556,
              37.4321525
            ],
            [
              126.7805867,
              37.4321565
            ],
            [
              126.7807637,
              37.4320059
            ],
            [
              126.7809053,
              37.4320822
            ],
            [
              126.7828318,
              37.4313222
            ],
            [
              126.7828222,
              37.430775
            ],
            [
              126.7831711,
              37.4306685
            ],
            [
              126.7835056,
              37.4300847
            ],
            [
              126.7842697,
              37.4299623
            ],
            [
              126.7845881,
              37.4300471
            ],
            [
              126.7852885,
              37.4297992
            ],
            [
              126.785459,
              37.430008
            ],
            [
              126.7863346,
              37.4298173
            ],
            [
              126.7869975,
              37.4300716
            ],
            [
              126.7874165,
              37.4294322
            ],
            [
              126.7878109,
              37.429212
            ],
            [
              126.7880943,
              37.4289119
            ],
            [
              126.7885544,
              37.4286346
            ],
            [
              126.7891316,
              37.4284731
            ],
            [
              126.7895178,
              37.4282545
            ],
            [
              126.7900313,
              37.4280099
            ],
            [
              126.7905797,
              37.427744
            ],
            [
              126.7909453,
              37.4277522
            ],
            [
              126.7914075,
              37.4280474
            ],
            [
              126.7916144,
              37.4282064
            ],
            [
              126.7917416,
              37.4285008
            ],
            [
              126.7920464,
              37.429216
            ],
            [
              126.7922938,
              37.4298908
            ],
            [
              126.7923649,
              37.430113
            ],
            [
              126.7924206,
              37.4302871
            ],
            [
              126.792492,
              37.4309116
            ],
            [
              126.7931633,
              37.4317506
            ],
            [
              126.7929927,
              37.4321278
            ],
            [
              126.793004,
              37.4324899
            ],
            [
              126.7931288,
              37.4331918
            ],
            [
              126.7934053,
              37.4335402
            ],
            [
              126.7935688,
              37.4341056
            ],
            [
              126.7938456,
              37.4347364
            ],
            [
              126.7937717,
              37.4350072
            ],
            [
              126.7931103,
              37.4354361
            ],
            [
              126.7931146,
              37.4365318
            ],
            [
              126.7930645,
              37.4379851
            ],
            [
              126.7930591,
              37.4381415
            ],
            [
              126.7934444,
              37.4385344
            ],
            [
              126.7934994,
              37.4385905
            ],
            [
              126.7925937,
              37.4386057
            ],
            [
              126.7911517,
              37.4386038
            ],
            [
              126.7894513,
              37.4390284
            ],
            [
              126.7882994,
              37.4393226
            ],
            [
              126.7869773,
              37.4399049
            ],
            [
              126.7872414,
              37.4402493
            ],
            [
              126.7874135,
              37.4405366
            ],
            [
              126.7876698,
              37.4409645
            ],
            [
              126.7879454,
              37.4414317
            ],
            [
              126.7879747,
              37.4414785
            ],
            [
              126.7878465,
              37.4415273
            ],
            [
              126.7868551,
              37.4419044
            ],
            [
              126.7861753,
              37.4421629
            ],
            [
              126.7852626,
              37.4425144
            ],
            [
              126.7848649,
              37.4426526
            ],
            [
              126.7850229,
              37.4429398
            ],
            [
              126.7850654,
              37.4430629
            ],
            [
              126.7851056,
              37.4433203
            ],
            [
              126.7851296,
              37.4435077
            ],
            [
              126.7851328,
              37.4437507
            ],
            [
              126.7851429,
              37.4441484
            ],
            [
              126.7851533,
              37.4445594
            ],
            [
              126.7838388,
              37.4445537
            ],
            [
              126.7832918,
              37.4443679
            ],
            [
              126.7831117,
              37.4447264
            ],
            [
              126.7828313,
              37.4452997
            ],
            [
              126.782824,
              37.445353
            ],
            [
              126.7825114,
              37.4451918
            ],
            [
              126.7821205,
              37.4457446
            ],
            [
              126.7812288,
              37.4461552
            ],
            [
              126.781317,
              37.4467767
            ],
            [
              126.7809281,
              37.447176
            ],
            [
              126.7807119,
              37.4474064
            ],
            [
              126.7804493,
              37.4479506
            ],
            [
              126.7798706,
              37.4486078
            ],
            [
              126.7800675,
              37.4494673
            ],
            [
              126.7795484,
              37.4504788
            ],
            [
              126.7795815,
              37.4511606
            ],
            [
              126.7788219,
              37.4518676
            ],
            [
              126.7778295,
              37.4518139
            ],
            [
              126.7765206,
              37.4514571
            ],
            [
              126.7759275,
              37.4511101
            ],
            [
              126.775158,
              37.4506598
            ],
            [
              126.7742222,
              37.4506142
            ],
            [
              126.7733073,
              37.4505696
            ],
            [
              126.7716336,
              37.449309
            ],
            [
              126.770286,
              37.4477264
            ],
            [
              126.7710896,
              37.4468763
            ],
            [
              126.7699982,
              37.4457616
            ],
            [
              126.7696733,
              37.4453998
            ],
            [
              126.7692958,
              37.4449432
            ],
            [
              126.7688646,
              37.4444505
            ],
            [
              126.7681635,
              37.4435431
            ]
          ]
        ]
      }
    },
    {
      "type": "Feature",
      "id": "eunhaeng",
      "properties": {
        "id": "eunhaeng",
        "name": "은행동",
        "center_lat": 37.4334715,
        "center_lng": 126.8093504,
        "source": "OpenStreetMap contributors",
        "source_url": "https://www.openstreetmap.org/relation/13375642"
      },
      "geometry": {
        "type": "Polygon",
        "coordinates": [
          [
            [
              126.7911203,
              37.4266559
            ],
            [
              126.7914674,
              37.4261288
            ],
            [
              126.7917982,
              37.4256465
            ],
            [
              126.7924698,
              37.4251571
            ],
            [
              126.7928211,
              37.4245062
            ],
            [
              126.7937885,
              37.423733
            ],
            [
              126.7945683,
              37.423514
            ],
            [
              126.7951914,
              37.4235047
            ],
            [
              126.7960833,
              37.4236005
            ],
            [
              126.7965625,
              37.4237936
            ],
            [
              126.797124,
              37.4238888
            ],
            [
              126.7973743,
              37.4237084
            ],
            [
              126.7974977,
              37.4232128
            ],
            [
              126.7976425,
              37.4230126
            ],
            [
              126.7981593,
              37.4229274
            ],
            [
              126.7992519,
              37.4229898
            ],
            [
              126.7996202,
              37.4229288
            ],
            [
              126.800162,
              37.4226788
            ],
            [
              126.8001155,
              37.4229714
            ],
            [
              126.79996,
              37.4231063
            ],
            [
              126.7998681,
              37.423307
            ],
            [
              126.7999782,
              37.4233914
            ],
            [
              126.8001186,
              37.4234722
            ],
            [
              126.8002625,
              37.4235168
            ],
            [
              126.8005783,
              37.4235447
            ],
            [
              126.8010007,
              37.4234642
            ],
            [
              126.8012027,
              37.4235735
            ],
            [
              126.8017856,
              37.4236303
            ],
            [
              126.8021361,
              37.4235877
            ],
            [
              126.8024723,
              37.4234883
            ],
            [
              126.8028889,
              37.4233775
            ],
            [
              126.8032305,
              37.4232625
            ],
            [
              126.8032518,
              37.4232511
            ],
            [
              126.8033089,
              37.4231911
            ],
            [
              126.8030871,
              37.420827
            ],
            [
              126.8030253,
              37.420596
            ],
            [
              126.8031316,
              37.420699
            ],
            [
              126.8034827,
              37.4212742
            ],
            [
              126.8041586,
              37.4213801
            ],
            [
              126.8049203,
              37.421242
            ],
            [
              126.8054421,
              37.4212962
            ],
            [
              126.8064327,
              37.421513
            ],
            [
              126.807058,
              37.4216861
            ],
            [
              126.8075423,
              37.4213364
            ],
            [
              126.8082093,
              37.4206441
            ],
            [
              126.8085924,
              37.4202349
            ],
            [
              126.8091141,
              37.4197821
            ],
            [
              126.8096139,
              37.4194656
            ],
            [
              126.8107014,
              37.4190792
            ],
            [
              126.8110162,
              37.4189936
            ],
            [
              126.8112914,
              37.4191964
            ],
            [
              126.8115467,
              37.419366
            ],
            [
              126.8120905,
              37.4194272
            ],
            [
              126.8130305,
              37.4194394
            ],
            [
              126.8136469,
              37.4191911
            ],
            [
              126.8143668,
              37.4195548
            ],
            [
              126.8147631,
              37.4195793
            ],
            [
              126.814948,
              37.4198573
            ],
            [
              126.8154367,
              37.4201318
            ],
            [
              126.8161104,
              37.4203398
            ],
            [
              126.8163415,
              37.4204063
            ],
            [
              126.8159276,
              37.4215375
            ],
            [
              126.8156525,
              37.4222543
            ],
            [
              126.8152364,
              37.4229502
            ],
            [
              126.8150911,
              37.4232386
            ],
            [
              126.81591,
              37.4234712
            ],
            [
              126.8166673,
              37.4237072
            ],
            [
              126.8171604,
              37.4236023
            ],
            [
              126.8180895,
              37.4239537
            ],
            [
              126.8192723,
              37.4243057
            ],
            [
              126.8205704,
              37.4245341
            ],
            [
              126.8216139,
              37.4246058
            ],
            [
              126.8217864,
              37.4245047
            ],
            [
              126.8225834,
              37.4247918
            ],
            [
              126.8227231,
              37.4251376
            ],
            [
              126.8238897,
              37.4258162
            ],
            [
              126.8248634,
              37.426361
            ],
            [
              126.825344,
              37.4264948
            ],
            [
              126.8261862,
              37.4268667
            ],
            [
              126.8271803,
              37.4271374
            ],
            [
              126.8275829,
              37.4274604
            ],
            [
              126.8278787,
              37.4278095
            ],
            [
              126.82791,
              37.4278328
            ],
            [
              126.8283032,
              37.4281262
            ],
            [
              126.8281298,
              37.4283082
            ],
            [
              126.8269656,
              37.4286475
            ],
            [
              126.8258385,
              37.4306884
            ],
            [
              126.8261605,
              37.4319473
            ],
            [
              126.8259314,
              37.4326898
            ],
            [
              126.8253431,
              37.4334028
            ],
            [
              126.8255946,
              37.43589
            ],
            [
              126.8257447,
              37.4362851
            ],
            [
              126.8253693,
              37.436613
            ],
            [
              126.8249469,
              37.4365981
            ],
            [
              126.8248155,
              37.4370453
            ],
            [
              126.824149,
              37.4380589
            ],
            [
              126.8236797,
              37.4385657
            ],
            [
              126.8231541,
              37.4388862
            ],
            [
              126.8224501,
              37.4390427
            ],
            [
              126.821264,
              37.4389525
            ],
            [
              126.8206032,
              37.439825
            ],
            [
              126.8203938,
              37.4401267
            ],
            [
              126.8197346,
              37.4397015
            ],
            [
              126.8190683,
              37.4395822
            ],
            [
              126.8181702,
              37.4393928
            ],
            [
              126.8175516,
              37.4390424
            ],
            [
              126.8167474,
              37.4391728
            ],
            [
              126.8159317,
              37.4391382
            ],
            [
              126.8154491,
              37.4390196
            ],
            [
              126.8144217,
              37.438938
            ],
            [
              126.8138337,
              37.4389689
            ],
            [
              126.8132114,
              37.43856
            ],
            [
              126.8117094,
              37.4385429
            ],
            [
              126.8110873,
              37.4386092
            ],
            [
              126.8106577,
              37.4385474
            ],
            [
              126.8098202,
              37.4383076
            ],
            [
              126.8092754,
              37.438278
            ],
            [
              126.80855,
              37.4382137
            ],
            [
              126.8085593,
              37.4386933
            ],
            [
              126.8088084,
              37.438891
            ],
            [
              126.8090342,
              37.439599
            ],
            [
              126.8093019,
              37.440474
            ],
            [
              126.809744,
              37.4418138
            ],
            [
              126.8101737,
              37.4429212
            ],
            [
              126.8100709,
              37.4430522
            ],
            [
              126.8102328,
              37.4431313
            ],
            [
              126.8104036,
              37.4435501
            ],
            [
              126.8097779,
              37.4437182
            ],
            [
              126.8096876,
              37.4435872
            ],
            [
              126.8089933,
              37.4442151
            ],
            [
              126.8089777,
              37.4444598
            ],
            [
              126.8086041,
              37.444833
            ],
            [
              126.808629,
              37.4452606
            ],
            [
              126.8082866,
              37.4453645
            ],
            [
              126.8078725,
              37.4457575
            ],
            [
              126.8066762,
              37.4470203
            ],
            [
              126.806779,
              37.4473639
            ],
            [
              126.8061856,
              37.4479911
            ],
            [
              126.805487,
              37.4478441
            ],
            [
              126.8036482,
              37.4473466
            ],
            [
              126.8025505,
              37.4470316
            ],
            [
              126.8019669,
              37.4468509
            ],
            [
              126.8017986,
              37.4467909
            ],
            [
              126.8014515,
              37.4466584
            ],
            [
              126.8008803,
              37.4463922
            ],
            [
              126.8005565,
              37.4462311
            ],
            [
              126.800386,
              37.4461463
            ],
            [
              126.8001149,
              37.446002
            ],
            [
              126.7994156,
              37.4456155
            ],
            [
              126.7990765,
              37.4454199
            ],
            [
              126.7989395,
              37.4453493
            ],
            [
              126.7987821,
              37.4452725
            ],
            [
              126.7983298,
              37.4450393
            ],
            [
              126.7979665,
              37.4448394
            ],
            [
              126.797955,
              37.4448328
            ],
            [
              126.7975984,
              37.4446268
            ],
            [
              126.7971432,
              37.4443862
            ],
            [
              126.796996,
              37.4443087
            ],
            [
              126.7968721,
              37.4442429
            ],
            [
              126.7965566,
              37.4440772
            ],
            [
              126.7958623,
              37.4437314
            ],
            [
              126.7956744,
              37.4436378
            ],
            [
              126.7946833,
              37.4431441
            ],
            [
              126.7942603,
              37.4429304
            ],
            [
              126.7941711,
              37.4428576
            ],
            [
              126.7940625,
              37.4427618
            ],
            [
              126.7938522,
              37.4424422
            ],
            [
              126.7937343,
              37.4422417
            ],
            [
              126.7936864,
              37.4421601
            ],
            [
              126.7934641,
              37.4417819
            ],
            [
              126.7930274,
              37.4410575
            ],
            [
              126.7929359,
              37.4408815
            ],
            [
              126.7928843,
              37.4406937
            ],
            [
              126.7928723,
              37.4405475
            ],
            [
              126.7928784,
              37.4403342
            ],
            [
              126.7929015,
              37.4401814
            ],
            [
              126.7929316,
              37.439982
            ],
            [
              126.7929606,
              37.4397894
            ],
            [
              126.7929703,
              37.4397251
            ],
            [
              126.7929922,
              37.4395802
            ],
            [
              126.7930506,
              37.4391586
            ],
            [
              126.7930682,
              37.4390417
            ],
            [
              126.793444,
              37.4390376
            ],
            [
              126.7934994,
              37.4385905
            ],
            [
              126.7934444,
              37.4385344
            ],
            [
              126.7930591,
              37.4381415
            ],
            [
              126.7930645,
              37.4379851
            ],
            [
              126.7931146,
              37.4365318
            ],
            [
              126.7931103,
              37.4354361
            ],
            [
              126.7937717,
              37.4350072
            ],
            [
              126.7938456,
              37.4347364
            ],
            [
              126.7935688,
              37.4341056
            ],
            [
              126.7934053,
              37.4335402
            ],
            [
              126.7931288,
              37.4331918
            ],
            [
              126.793004,
              37.4324899
            ],
            [
              126.7929927,
              37.4321278
            ],
            [
              126.7931633,
              37.4317506
            ],
            [
              126.792492,
              37.4309116
            ],
            [
              126.7924206,
              37.4302871
            ],
            [
              126.7923649,
              37.430113
            ],
            [
              126.7922938,
              37.4298908
            ],
            [
              126.7920464,
              37.429216
            ],
            [
              126.7917416,
              37.4285008
            ],
            [
              126.7916144,
              37.4282064
            ],
            [
              126.7915,
              37.4279
            ],
            [
              126.7913027,
              37.4272247
            ],
            [
              126.7911203,
              37.4266559
            ]
          ]
        ]
      }
    }
  ]
}